[
    {
        "Altitude(m)": 610399.504551707,
        "Argument of Periapsis(deg)": 0.0,
        "Eccentricity": 0.0,
        "Inclination(deg)": 60.0,
        "Latitude(deg)": 52.111267943610706,
        "Longitude(deg)": -57.415767309545586,
        "Mean Anomaly(deg)": -294.5455,
        "RAAN(deg)": 355.0,
        "Satellite Name": "Test1 1566",
        "Satellite Number": 1566,
        "Semi-Major Axis(m)": 6980739.136638005,
        "Time(s)": 0
    },
    {
        "Altitude(m)": 610481.6560006944,
        "Argument of Periapsis(deg)": 0.00010418945913296404,
        "Eccentricity": 0.0,
        "Inclination(deg)": 60.0,
        "Latitude(deg)": 52.47087098895489,
        "Longitude(deg)": -56.6336332226161,
        "Mean Anomaly(deg)": -293.9253938545382,
        "RAAN(deg)": 354.99957995086027,
        "Satellite Name": "Test1 1566",
        "Satellite Number": 1566,
        "Semi-Major Axis(m)": 6980739.136638005,
        "Time(s)": 10
    },
    {
        "Altitude(m)": 610562.346274824,
        "Argument of Periapsis(deg)": 0.0002083789182659281,
        "Eccentricity": 0.0,
        "Inclination(deg)": 60.0,
        "Latitude(deg)": 52.82462665691017,
        "Longitude(deg)": -55.8380861633388,
        "Mean Anomaly(deg)": -293.30528770907637,
        "RAAN(deg)": 354.99915990172053,
        "Satellite Name": "Test1 1566",
        "Satellite Number": 1566,
        "Semi-Major Axis(m)": 6980739.136638005,
        "Time(s)": 20
    },
    {
        "Altitude(m)": 610641.5279079779,
        "Argument of Periapsis(deg)": 0.00031256837739889213,
        "Eccentricity": 0.0,
        "Inclination(deg)": 60.0,
        "Latitude(deg)": 53.172365421103045,
        "Longitude(deg)": -55.02896161964985,
        "Mean Anomaly(deg)": -292.6851815636145,
        "RAAN(deg)": 354.9987398525808,
        "Satellite Name": "Test1 1566",
        "Satellite Number": 1566,
        "Semi-Major Axis(m)": 6980739.136638005,
        "Time(s)": 30
    },
    {
        "Altitude(m)": 610719.1543904936,
        "Argument of Periapsis(deg)": 0.0004167578365318562,
        "Eccentricity": 0.0,
        "Inclination(deg)": 60.0,
        "Latitude(deg)": 53.51391427923723,
        "Longitude(deg)": -54.2061066917879,
        "Mean Anomaly(deg)": -292.06507541815273,
        "RAAN(deg)": 354.99831980344106,
        "Satellite Name": "Test1 1566",
        "Satellite Number": 1566,
        "Semi-Major Axis(m)": 6980739.136638005,
        "Time(s)": 40
    },
    {
        "Altitude(m)": 610795.1801914786,
        "Argument of Periapsis(deg)": 0.0005209472956648203,
        "Eccentricity": 0.0,
        "Inclination(deg)": 60.0,
        "Latitude(deg)": 53.84909687505439,
        "Longitude(deg)": -53.369382506467375,
        "Mean Anomaly(deg)": -291.44496927269086,
        "RAAN(deg)": 354.99789975430133,
        "Satellite Name": "Test1 1566",
        "Satellite Number": 1566,
        "Semi-Major Axis(m)": 6980739.136638005,
        "Time(s)": 50
    },
    {
        "Altitude(m)": 610869.5607806508,
        "Argument of Periapsis(deg)": 0.0006251367547977843,
        "Eccentricity": 0.0,
        "Inclination(deg)": 60.0,
        "Latitude(deg)": 54.17773364462014,
        "Longitude(deg)": -52.51866518382878,
        "Mean Anomaly(deg)": -290.82486312722904,
        "RAAN(deg)": 354.99747970516154,
        "Satellite Name": "Test1 1566",
        "Satellite Number": 1566,
        "Semi-Major Axis(m)": 6980739.136638005,
        "Time(s)": 60
    },
    {
        "Altitude(m)": 610942.2526496698,
        "Argument of Periapsis(deg)": 0.0007293262139307483,
        "Eccentricity": 0.0,
        "Inclination(deg)": 60.0,
        "Latitude(deg)": 54.4996419885994,
        "Longitude(deg)": -51.65384686572608,
        "Mean Anomaly(deg)": -290.2047569817672,
        "RAAN(deg)": 354.99705965602186,
        "Satellite Name": "Test1 1566",
        "Satellite Number": 1566,
        "Semi-Major Axis(m)": 6980739.136638005,
        "Time(s)": 70
    },
    {
        "Altitude(m)": 611013.2133329437,
        "Argument of Periapsis(deg)": 0.0008335156730637124,
        "Eccentricity": 0.0,
        "Inclination(deg)": 60.0,
        "Latitude(deg)": 54.81463647214339,
        "Longitude(deg)": -50.774838312609276,
        "Mean Anomaly(deg)": -289.58465083630534,
        "RAAN(deg)": 354.99663960688207,
        "Satellite Name": "Test1 1566",
        "Satellite Number": 1566,
        "Semi-Major Axis(m)": 6980739.136638005,
        "Time(s)": 80
    },
    {
        "Altitude(m)": 611082.4014279435,
        "Argument of Periapsis(deg)": 0.0009377051321966765,
        "Eccentricity": 0.0,
        "Inclination(deg)": 60.0,
        "Latitude(deg)": 55.12252905394989,
        "Longitude(deg)": -49.881570036214896,
        "Mean Anomaly(deg)": -288.9645446908435,
        "RAAN(deg)": 354.9962195577423,
        "Satellite Name": "Test1 1566",
        "Satellite Number": 1566,
        "Semi-Major Axis(m)": 6980739.136638005,
        "Time(s)": 90
    },
    {
        "Altitude(m)": 611149.7766149796,
        "Argument of Periapsis(deg)": 0.0010418945913296407,
        "Eccentricity": 0.0,
        "Inclination(deg)": 60.0,
        "Latitude(deg)": 55.4231293459564,
        "Longitude(deg)": -48.97399347234503,
        "Mean Anomaly(deg)": -288.3444385453817,
        "RAAN(deg)": 354.99579950860254,
        "Satellite Name": "Test1 1566",
        "Satellite Number": 1566,
        "Semi-Major Axis(m)": 6980739.136638005,
        "Time(s)": 100
    },
    {
        "Altitude(m)": 611215.299676448,
        "Argument of Periapsis(deg)": 0.0011460840504626045,
        "Eccentricity": 0.0,
        "Inclination(deg)": 60.0,
        "Latitude(deg)": 55.71624490499242,
        "Longitude(deg)": -48.05208369638158,
        "Mean Anomaly(deg)": -287.7243323999199,
        "RAAN(deg)": 354.9953794594628,
        "Satellite Name": "Test1 1566",
        "Satellite Number": 1566,
        "Semi-Major Axis(m)": 6980739.136638005,
        "Time(s)": 110
    },
    {
        "Altitude(m)": 611278.9325155256,
        "Argument of Periapsis(deg)": 0.0012502735095955685,
        "Eccentricity": 0.0,
        "Inclination(deg)": 60.0,
        "Latitude(deg)": 56.00168155755283,
        "Longitude(deg)": -47.11584064384665,
        "Mean Anomaly(deg)": -287.104226254458,
        "RAAN(deg)": 354.9949594103231,
        "Satellite Name": "Test1 1566",
        "Satellite Number": 1566,
        "Semi-Major Axis(m)": 6980739.136638005,
        "Time(s)": 120
    },
    {
        "Altitude(m)": 611340.6381743269,
        "Argument of Periapsis(deg)": 0.0013544629687285324,
        "Eccentricity": 0.0,
        "Inclination(deg)": 60.0,
        "Latitude(deg)": 56.279243758638366,
        "Longitude(deg)": -46.16529033515843,
        "Mean Anomaly(deg)": -286.48412010899625,
        "RAAN(deg)": 354.99453936118334,
        "Satellite Name": "Test1 1566",
        "Satellite Number": 1566,
        "Semi-Major Axis(m)": 6980739.136638005,
        "Time(s)": 130
    },
    {
        "Altitude(m)": 611400.3808515217,
        "Argument of Periapsis(deg)": 0.0014586524278614966,
        "Eccentricity": 0.0,
        "Inclination(deg)": 60.0,
        "Latitude(deg)": 56.5487349853553,
        "Longitude(deg)": -45.20048760192969,
        "Mean Anomaly(deg)": -285.8640139635344,
        "RAAN(deg)": 354.9941193120436,
        "Satellite Name": "Test1 1566",
        "Satellite Number": 1566,
        "Semi-Major Axis(m)": 6980739.136638005,
        "Time(s)": 140
    },
    {
        "Altitude(m)": 611458.1259193249,
        "Argument of Periapsis(deg)": 0.0015628418869944607,
        "Eccentricity": 0.0,
        "Inclination(deg)": 60.0,
        "Latitude(deg)": 56.80995816567329,
        "Longitude(deg)": -44.22151727175267,
        "Mean Anomaly(deg)": -285.24390781807256,
        "RAAN(deg)": 354.9936992629039,
        "Satellite Name": "Test1 1566",
        "Satellite Number": 1566,
        "Semi-Major Axis(m)": 6980739.136638005,
        "Time(s)": 150
    },
    {
        "Altitude(m)": 611513.8399399995,
        "Argument of Periapsis(deg)": 0.0016670313461274247,
        "Eccentricity": 0.0,
        "Inclination(deg)": 60.0,
        "Latitude(deg)": 57.06271614239055,
        "Longitude(deg)": -43.22849530528502,
        "Mean Anomaly(deg)": -284.62380167261074,
        "RAAN(deg)": 354.99327921376414,
        "Satellite Name": "Test1 1566",
        "Satellite Number": 1566,
        "Semi-Major Axis(m)": 6980739.136638005,
        "Time(s)": 160
    },
    {
        "Altitude(m)": 611567.4906817271,
        "Argument of Periapsis(deg)": 0.0017712208052603888,
        "Eccentricity": 0.0,
        "Inclination(deg)": 60.0,
        "Latitude(deg)": 57.30681217196572,
        "Longitude(deg)": -42.22157137781296,
        "Mean Anomaly(deg)": -284.00369552714886,
        "RAAN(deg)": 354.99285916462435,
        "Satellite Name": "Test1 1566",
        "Satellite Number": 1566,
        "Semi-Major Axis(m)": 6980739.136638005,
        "Time(s)": 170
    },
    {
        "Altitude(m)": 611619.0471339134,
        "Argument of Periapsis(deg)": 0.001875410264393353,
        "Eccentricity": 0.0,
        "Inclination(deg)": 60.0,
        "Latitude(deg)": 57.54205045744681,
        "Longitude(deg)": -41.20092985737434,
        "Mean Anomaly(deg)": -283.3835893816871,
        "RAAN(deg)": 354.9924391154846,
        "Satellite Name": "Test1 1566",
        "Satellite Number": 1566,
        "Semi-Major Axis(m)": 6980739.136638005,
        "Time(s)": 180
    },
    {
        "Altitude(m)": 611668.4795218896,
        "Argument of Periapsis(deg)": 0.0019795997235263173,
        "Eccentricity": 0.0,
        "Inclination(deg)": 60.0,
        "Latitude(deg)": 57.76823671424635,
        "Longitude(deg)": -40.1667906688627,
        "Mean Anomaly(deg)": -282.7634832362252,
        "RAAN(deg)": 354.9920190663449,
        "Satellite Name": "Test1 1566",
        "Satellite Number": 1566,
        "Semi-Major Axis(m)": 6980739.136638005,
        "Time(s)": 190
    }
]